[
    {
        "Altitude(m)": 553593.2131135275,
        "Argument of Periapsis(deg)": 0.006622991110713501,
        "Eccentricity": 0.0,
        "Inclination(deg)": 53.0,
        "Latitude(deg)": 16.505870225880294,
        "Longitude(deg)": -33.60392840507186,
        "Mean Anomaly(deg)": -200.81750713242243,
        "RAAN(deg)": 259.99014336852804,
        "Satellite Name": "Starlink Shell 1 1153",
        "Satellite Number": 1153,
        "Semi-Major Axis(m)": 6931778.249405717,
        "Time(s)": 190
    },
    {
        "Altitude(m)": 553571.0395564003,
        "Argument of Periapsis(deg)": 0.0069715695902247375,
        "Eccentricity": 0.0,
        "Inclination(deg)": 53.0,
        "Latitude(deg)": 16.014313781670328,
        "Longitude(deg)": -33.236592814402776,
        "Mean Anomaly(deg)": -200.1906759288657,
        "RAAN(deg)": 259.9896245984506,
        "Satellite Name": "Starlink Shell 1 1153",
        "Satellite Number": 1153,
        "Semi-Major Axis(m)": 6931778.249405717,
        "Time(s)": 200
    },
    {
        "Altitude(m)": 553551.2458719373,
        "Argument of Periapsis(deg)": 0.007320148069735974,
        "Eccentricity": 0.0,
        "Inclination(deg)": 53.0,
        "Latitude(deg)": 15.521964655145176,
        "Longitude(deg)": -32.871254680141945,
        "Mean Anomaly(deg)": -199.563844725309,
        "RAAN(deg)": 259.98910582837306,
        "Satellite Name": "Starlink Shell 1 1153",
        "Satellite Number": 1153,
        "Semi-Major Axis(m)": 6931778.249405717,
        "Time(s)": 210
    },
    {
        "Altitude(m)": 553533.8639281221,
        "Argument of Periapsis(deg)": 0.007668726549247212,
        "Eccentricity": 0.0,
        "Inclination(deg)": 53.0,
        "Latitude(deg)": 15.028852142986953,
        "Longitude(deg)": -32.507843493705884,
        "Mean Anomaly(deg)": -198.9370135217523,
        "RAAN(deg)": 259.9885870582956,
        "Satellite Name": "Starlink Shell 1 1153",
        "Satellite Number": 1153,
        "Semi-Major Axis(m)": 6931778.249405717,
        "Time(s)": 220
    },
    {
        "Altitude(m)": 553518.9245143579,
        "Argument of Periapsis(deg)": 0.00801730502875845,
        "Eccentricity": 0.0,
        "Inclination(deg)": 53.0,
        "Latitude(deg)": 14.535005117344395,
        "Longitude(deg)": -32.14628956273079,
        "Mean Anomaly(deg)": -198.31018231819556,
        "RAAN(deg)": 259.98806828821813,
        "Satellite Name": "Starlink Shell 1 1153",
        "Satellite Number": 1153,
        "Semi-Major Axis(m)": 6931778.249405717,
        "Time(s)": 230
    },
    {
        "Altitude(m)": 553506.4573235118,
        "Argument of Periapsis(deg)": 0.008365883508269684,
        "Eccentricity": 0.0,
        "Inclination(deg)": 53.0,
        "Latitude(deg)": 14.04045204301709,
        "Longitude(deg)": -31.78652347984297,
        "Mean Anomaly(deg)": -197.6833511146388,
        "RAAN(deg)": 259.98754951814067,
        "Satellite Name": "Starlink Shell 1 1153",
        "Satellite Number": 1153,
        "Semi-Major Axis(m)": 6931778.249405717,
        "Time(s)": 240
    },
    {
        "Altitude(m)": 553496.4909345024,
        "Argument of Periapsis(deg)": 0.008714461987780921,
        "Eccentricity": 0.0,
        "Inclination(deg)": 53.0,
        "Latitude(deg)": 13.545220994276171,
        "Longitude(deg)": -31.42847710426382,
        "Mean Anomaly(deg)": -197.05651991108218,
        "RAAN(deg)": 259.98703074806315,
        "Satellite Name": "Starlink Shell 1 1153",
        "Satellite Number": 1153,
        "Semi-Major Axis(m)": 6931778.249405717,
        "Time(s)": 250
    },
    {
        "Altitude(m)": 553489.0527954167,
        "Argument of Periapsis(deg)": 0.009063040467292158,
        "Eccentricity": 0.0,
        "Inclination(deg)": 53.0,
        "Latitude(deg)": 13.049339671339347,
        "Longitude(deg)": -31.07208303052732,
        "Mean Anomaly(deg)": -196.4296887075254,
        "RAAN(deg)": 259.98651197798574,
        "Satellite Name": "Starlink Shell 1 1153",
        "Satellite Number": 1153,
        "Semi-Major Axis(m)": 6931778.249405717,
        "Time(s)": 260
    },
    {
        "Altitude(m)": 553484.1692071711,
        "Argument of Periapsis(deg)": 0.009411618946803396,
        "Eccentricity": 0.0,
        "Inclination(deg)": 53.0,
        "Latitude(deg)": 12.55283541651044,
        "Longitude(deg)": -30.717274057203518,
        "Mean Anomaly(deg)": -195.8028575039687,
        "RAAN(deg)": 259.9859932079083,
        "Satellite Name": "Starlink Shell 1 1153",
        "Satellite Number": 1153,
        "Semi-Major Axis(m)": 6931778.249405717,
        "Time(s)": 270
    },
    {
        "Altitude(m)": 553481.8653077488,
        "Argument of Periapsis(deg)": 0.009760197426314633,
        "Eccentricity": 0.0,
        "Inclination(deg)": 53.0,
        "Latitude(deg)": 12.055735229993001,
        "Longitude(deg)": -30.36398416851632,
        "Mean Anomaly(deg)": -195.176026300412,
        "RAAN(deg)": 259.98547443783076,
        "Satellite Name": "Starlink Shell 1 1153",
        "Satellite Number": 1153,
        "Semi-Major Axis(m)": 6931778.249405717,
        "Time(s)": 280
    },
    {
        "Altitude(m)": 553482.1650569907,
        "Argument of Periapsis(deg)": 0.01010877590582587,
        "Eccentricity": 0.0,
        "Inclination(deg)": 53.0,
        "Latitude(deg)": 11.558065785396357,
        "Longitude(deg)": -30.012148003127884,
        "Mean Anomaly(deg)": -194.54919509685527,
        "RAAN(deg)": 259.9849556677533,
        "Satellite Name": "Starlink Shell 1 1153",
        "Satellite Number": 1153,
        "Semi-Major Axis(m)": 6931778.249405717,
        "Time(s)": 290
    },
    {
        "Altitude(m)": 553485.0912219357,
        "Argument of Periapsis(deg)": 0.010457354385337106,
        "Eccentricity": 0.0,
        "Inclination(deg)": 53.0,
        "Latitude(deg)": 11.059853444943373,
        "Longitude(deg)": -29.661700322973903,
        "Mean Anomaly(deg)": -193.92236389329858,
        "RAAN(deg)": 259.98443689767583,
        "Satellite Name": "Starlink Shell 1 1153",
        "Satellite Number": 1153,
        "Semi-Major Axis(m)": 6931778.249405717,
        "Time(s)": 300
    },
    {
        "Altitude(m)": 553490.6653628108,
        "Argument of Periapsis(deg)": 0.010805932864848343,
        "Eccentricity": 0.0,
        "Inclination(deg)": 53.0,
        "Latitude(deg)": 10.561124274390373,
        "Longitude(deg)": -29.31257699503302,
        "Mean Anomaly(deg)": -193.29553268974178,
        "RAAN(deg)": 259.9839181275984,
        "Satellite Name": "Starlink Shell 1 1153",
        "Satellite Number": 1153,
        "Semi-Major Axis(m)": 6931778.249405717,
        "Time(s)": 310
    },
    {
        "Altitude(m)": 553498.907819535,
        "Argument of Periapsis(deg)": 0.01115451134435958,
        "Eccentricity": 0.0,
        "Inclination(deg)": 53.0,
        "Latitude(deg)": 10.061904057677427,
        "Longitude(deg)": -28.964714460296275,
        "Mean Anomaly(deg)": -192.6687014861852,
        "RAAN(deg)": 259.9833993575209,
        "Satellite Name": "Starlink Shell 1 1153",
        "Satellite Number": 1153,
        "Semi-Major Axis(m)": 6931778.249405717,
        "Time(s)": 320
    },
    {
        "Altitude(m)": 553509.837698874,
        "Argument of Periapsis(deg)": 0.011503089823870818,
        "Eccentricity": 0.0,
        "Inclination(deg)": 53.0,
        "Latitude(deg)": 9.562218311316789,
        "Longitude(deg)": -28.61804920281438,
        "Mean Anomaly(deg)": -192.0418702826284,
        "RAAN(deg)": 259.9828805874434,
        "Satellite Name": "Starlink Shell 1 1153",
        "Satellite Number": 1153,
        "Semi-Major Axis(m)": 6931778.249405717,
        "Time(s)": 330
    },
    {
        "Altitude(m)": 553523.4728621874,
        "Argument of Periapsis(deg)": 0.011851668303382053,
        "Eccentricity": 0.0,
        "Inclination(deg)": 53.0,
        "Latitude(deg)": 9.06209229853282,
        "Longitude(deg)": -28.27251873170289,
        "Mean Anomaly(deg)": -191.41503907907173,
        "RAAN(deg)": 259.9823618173659,
        "Satellite Name": "Starlink Shell 1 1153",
        "Satellite Number": 1153,
        "Semi-Major Axis(m)": 6931778.249405717,
        "Time(s)": 340
    },
    {
        "Altitude(m)": 553539.8299137705,
        "Argument of Periapsis(deg)": 0.012200246782893292,
        "Eccentricity": 0.0,
        "Inclination(deg)": 53.0,
        "Latitude(deg)": 8.561551043166833,
        "Longitude(deg)": -27.928061050363233,
        "Mean Anomaly(deg)": -190.788207875515,
        "RAAN(deg)": 259.98184304728846,
        "Satellite Name": "Starlink Shell 1 1153",
        "Satellite Number": 1153,
        "Semi-Major Axis(m)": 6931778.249405717,
        "Time(s)": 350
    },
    {
        "Altitude(m)": 553558.924189854,
        "Argument of Periapsis(deg)": 0.012548825262404526,
        "Eccentricity": 0.0,
        "Inclination(deg)": 53.0,
        "Latitude(deg)": 8.060619343360022,
        "Longitude(deg)": -27.58461412579618,
        "Mean Anomaly(deg)": -190.1613766719582,
        "RAAN(deg)": 259.981324277211,
        "Satellite Name": "Starlink Shell 1 1153",
        "Satellite Number": 1153,
        "Semi-Major Axis(m)": 6931778.249405717,
        "Time(s)": 360
    },
    {
        "Altitude(m)": 553580.7697481854,
        "Argument of Periapsis(deg)": 0.012897403741915765,
        "Eccentricity": 0.0,
        "Inclination(deg)": 53.0,
        "Latitude(deg)": 7.5593217850221865,
        "Longitude(deg)": -27.242116870881887,
        "Mean Anomaly(deg)": -189.53454546840155,
        "RAAN(deg)": 259.9808055071335,
        "Satellite Name": "Starlink Shell 1 1153",
        "Satellite Number": 1153,
        "Semi-Major Axis(m)": 6931778.249405717,
        "Time(s)": 370
    }
]